[{"OBJECT_NAME":"STARLINK-4550","OBJECT_ID":"2022-101AV","EPOCH":"2026-03-09T22:27:46.528416","MEAN_MOTION":15.0882294,"ECCENTRICITY":0.00014577,"INCLINATION":53.2173,"RA_OF_ASC_NODE":52.9187,"ARG_OF_PERICENTER":100.627,"MEAN_ANOMALY":259.4887,"EPHEMERIS_TYPE":0,"CLASSIFICATION_TYPE":"U","NORAD_CAT_ID":53570,"ELEMENT_SET_NO":999,"REV_AT_EPOCH":19717,"BSTAR":-7.0113402e-5,"MEAN_MOTION_DOT":-1.403e-5,"MEAN_MOTION_DDOT":0},{"OBJECT_NAME":"IRIDIUM 33 DEB","OBJECT_ID":"1997-051QE","EPOCH":"2026-03-07T09:35:18.798432","MEAN_MOTION":15.07266806,"ECCENTRICITY":0.0013423,"INCLINATION":86.3519,"RA_OF_ASC_NODE":312.8742,"ARG_OF_PERICENTER":171.2899,"MEAN_ANOMALY":188.8573,"EPHEMERIS_TYPE":0,"CLASSIFICATION_TYPE":"U","NORAD_CAT_ID":35484,"ELEMENT_SET_NO":999,"REV_AT_EPOCH":63287,"BSTAR":0.0040001,"MEAN_MOTION_DOT":0.00060878,"MEAN_MOTION_DDOT":0}]
